     2.100          NAVIGATION                              RINEX VERSION / TYPE
fic2rin                                 06/16/2013 00:16:29 PGM / RUN BY / DATE
                                                            END OF HEADER
16 13  6 15  2  0  0.0 -.251313671470D-03  .341060513165D-12  .000000000000D+00
     .250000000000D+02 -.234375000000D+01  .411945730622D-08 -.773297117169D+00
    -.949949026108D-07  .714638305362D-02  .415742397308D-05  .515365584183D+04
     .525600000000D+06  .856816768646D-07  .252104493978D+01 -.577419996262D-07
     .985046332894D+00  .305968750000D+03  .112892301229D+00 -.807712215884D-08
     .271082720255D-09  .100000000000D+01  .174400000000D+04  .000000000000D+00
     .240000000000D+01  .000000000000D+00 -.102445483208D-07  .250000000000D+02
     .518406000000D+06  .400000000000D+01
17 13  6 15  2  0  0.0  .891555100679D-05 -.386535248253D-11  .000000000000D+00
     .690000000000D+02 -.734687500000D+02  .455126100686D-08 -.177632900966D+01
    -.373460352421D-05  .834380683955D-02  .762566924095D-05  .515364304543D+04
     .525600000000D+06  .106170773506D-06 -.272596667440D+01  .465661287308D-07
     .965850176405D+00  .232250000000D+03 -.218914633681D+01 -.797568936233D-08
    -.128576784311D-10  .100000000000D+01  .174400000000D+04  .000000000000D+00
     .240000000000D+01  .000000000000D+00 -.102445483208D-07  .690000000000D+02
     .518406000000D+06  .400000000000D+01
18 13  6 15  2  0  0.0  .258743762970D-03  .193267624127D-11  .000000000000D+00
     .101000000000D+03  .348437500000D+02  .572559563690D-08 -.280112594717D+00
     .191666185856D-05  .144386987668D-01  .593811273575D-05  .515360335541D+04
     .525600000000D+06 -.763684511185D-07 -.671560827330D+00  .137835741043D-06
     .927141914085D+00  .247593750000D+03 -.210043166220D+01 -.891572851874D-08
    -.300012496725D-10  .100000000000D+01  .174400000000D+04  .000000000000D+00
     .240000000000D+01  .000000000000D+00 -.111758708954D-07  .101000000000D+03
     .518406000000D+06  .400000000000D+01
19 13  6 15  2  0  0.0 -.381115358323D-03 -.306954461848D-11  .000000000000D+00
     .440000000000D+02 -.739062500000D+02  .455090384913D-08 -.250093890384D+01
    -.399909913540D-05  .937850936316D-02  .814162194729D-05  .515371425629D+04
     .525600000000D+06 -.931322574615D-07 -.267409645766D+01 -.234693288803D-06
     .963056247181D+00  .225781250000D+03  .317252935087D+00 -.798533262116D-08
    -.153577825704D-10  .100000000000D+01  .174400000000D+04  .000000000000D+00
     .240000000000D+01  .000000000000D+00 -.149011611938D-07  .440000000000D+02
     .518406000000D+06  .400000000000D+01
20 13  6 15  2  0  0.0  .103648751974D-03  .216004991671D-11  .000000000000D+00
     .420000000000D+02  .373437500000D+02  .558558980509D-08  .232498188071D+00
     .196881592274D-05  .537867983803D-02  .591762363911D-05  .515372496986D+04
     .525600000000D+06 -.465661287308D-07 -.724987524538D+00  .558793544769D-07
     .927869148217D+00  .246937500000D+03  .129317851211D+01 -.870143387822D-08
    -.353586156854D-10  .100000000000D+01  .174400000000D+04  .000000000000D+00
     .240000000000D+01  .000000000000D+00 -.791624188423D-08  .420000000000D+02
     .518406000000D+06  .400000000000D+01
21 13  6 15  2  0  0.0 -.303180422634D-03 -.204636307899D-11  .000000000000D+00
     .980000000000D+02 -.443750000000D+01  .537129516457D-08  .767208339478D+00
     .763684511185D-07  .204139902489D-01  .105127692223D-04  .515367790604D+04
     .525600000000D+06 -.229105353355D-06 -.171943702817D+01  .128522515297D-06
     .931282365774D+00  .168000000000D+03 -.212739948174D+01 -.866821820894D-08
    -.410731394325D-10  .100000000000D+01  .174400000000D+04  .000000000000D+00
     .340000000000D+01  .000000000000D+00 -.111758708954D-07  .980000000000D+02
     .518406000000D+06  .400000000000D+01
22 13  6 15  2  0  0.0  .171690713614D-03  .159161572810D-11  .000000000000D+00
     .590000000000D+02  .344687500000D+02  .565237830139D-08 -.861292107771D+00
     .169873237610D-05  .670516816899D-02  .590458512306D-05  .515364348412D+04
     .525600000000D+06 -.633299350739D-07 -.668988846185D+00  .141561031342D-06
     .924891720790D+00  .245343750000D+03 -.203846299218D+01 -.869714798541D-08
    -.810748056625D-10  .100000000000D+01  .174400000000D+04  .000000000000D+00
     .240000000000D+01  .000000000000D+00 -.172294676304D-07  .590000000000D+02
     .518406000000D+06  .400000000000D+01
23 13  6 15  2  0  0.0  .761076807976D-04 -.352429196937D-11  .000000000000D+00
     .580000000000D+02 -.212500000000D+01  .453161733148D-08 -.297728017018D+01
    -.193715095520D-06  .865886243992D-02  .766478478909D-05  .515370222092D+04
     .525600000000D+06 -.130385160446D-06  .387788187129D+00 -.521540641785D-07
     .955930699448D+00  .229093750000D+03 -.288022971667D+01 -.799211861811D-08
    -.363586573412D-09  .100000000000D+01  .174400000000D+04  .000000000000D+00
     .240000000000D+01  .000000000000D+00 -.200234353542D-07  .580000000000D+02
     .518406000000D+06  .400000000000D+01
24 13  6 15  2  0  0.0 -.821053981781D-05 -.682121026330D-12  .000000000000D+00
     .154000000000D+03  .425000000000D+02  .431696553323D-08  .237659885902D+01
     .224448740482D-05  .948024448007D-03  .911951065063D-05  .515368170738D+04
     .525600000000D+06  .149011611938D-07  .141437947266D+01 -.558793544769D-08
     .958745804411D+00  .200000000000D+03  .431165289594D+00 -.804854954011D-08
     .112861844006D-09  .100000000000D+01  .174400000000D+04  .000000000000D+00
     .240000000000D+01  .000000000000D+00  .279396772385D-08  .154000000000D+03
     .518406000000D+06  .400000000000D+01
25 13  6 15  2  0  0.0  .109646003693D-03  .466116034659D-11  .000000000000D+00
     .190000000000D+02  .116562500000D+02  .446411451972D-08  .479956992730D+00
     .461935997009D-06  .269911612850D-02  .478327274323D-05  .515376638603D+04
     .525600000000D+06 -.186264514923D-07  .246418241854D+01 -.745058059692D-08
     .973145444580D+00  .296500000000D+03  .698797597051D+00 -.822355682986D-08
     .245010205659D-09  .100000000000D+01  .174400000000D+04  .000000000000D+00
     .240000000000D+01  .000000000000D+00  .558793544769D-08  .190000000000D+02
     .518406000000D+06  .400000000000D+01
26 13  6 15  2  0  0.0  .546425580978D-04  .160298441187D-10  .000000000000D+00
     .290000000000D+02 -.156250000000D+00  .389301930274D-08 -.301108955142D+01
     .260770320892D-07  .211385136936D-01  .808015465736D-05  .515366855240D+04
     .525600000000D+06  .262632966042D-06  .468728809739D+00 -.109896063805D-06
     .979132372451D+00  .229187500000D+03  .124410099282D+01 -.746745390657D-08
    -.357514891930D-09  .100000000000D+01  .174400000000D+04  .000000000000D+00
     .240000000000D+01  .000000000000D+00 -.605359673500D-08  .290000000000D+02
     .518406000000D+06  .400000000000D+01
28 13  6 15  2  0  0.0  .267428345978D-03  .329691829393D-11  .000000000000D+00
     .360000000000D+02 -.118750000000D+01  .430553648573D-08 -.984469654976D+00
     .353902578354D-06  .185895672766D-01  .467710196972D-05  .515364454651D+04
     .525600000000D+06 -.145286321640D-06  .252726940605D+01  .339001417160D-06
     .983494576188D+00  .305937500000D+03 -.176891094999D+01 -.831427489435D-08
     .256082095419D-09  .100000000000D+01  .174400000000D+04  .000000000000D+00
     .240000000000D+01  .000000000000D+00 -.107102096081D-07  .360000000000D+02
     .518406000000D+06  .400000000000D+01
29 13  6 15  2  0  0.0  .445009209216D-03  .341060513165D-11  .000000000000D+00
     .460000000000D+02 -.757812500000D+02  .462376402690D-08  .103192479812D+01
    -.386871397495D-05  .183076236863D-02  .729225575924D-05  .515363393211D+04
     .525600000000D+06  .447034835815D-07 -.271716546665D+01 -.372529029846D-07
     .966488887902D+00  .245250000000D+03 -.998176973552D+00 -.811176645906D-08
    -.864321716755D-10  .100000000000D+01  .174400000000D+04  .000000000000D+00
     .240000000000D+01  .000000000000D+00 -.931322574615D-08  .460000000000D+02
     .518406000000D+06  .400000000000D+01
30 13  6 15  2  0  0.0 -.172840896994D-03  .113686837722D-11  .000000000000D+00
     .850000000000D+02  .612500000000D+01  .559201864431D-08 -.833825664300D+00
     .506639480591D-06  .631838373374D-02  .465102493763D-05  .515367731857D+04
     .525600000000D+06  .372529029846D-07  .248089521015D+01  .102445483208D-06
     .977978573350D+00  .297843750000D+03  .865006955629D+00 -.815962559544D-08
     .247867467532D-09  .100000000000D+01  .174400000000D+04  .000000000000D+00
     .240000000000D+01  .630000000000D+02 -.190921127796D-07  .850000000000D+02
     .518406000000D+06  .400000000000D+01
31 13  6 15  2  0  0.0  .317755620927D-03  .125055521494D-11  .000000000000D+00
     .500000000000D+02  .305000000000D+02  .380372986919D-08  .171495607645D+01
     .171922147274D-05  .784542737529D-02  .844337046146D-05  .515361146927D+04
     .525600000000D+06  .100582838058D-06  .144783394704D+01  .115483999252D-06
     .980202368289D+00  .224656250000D+03 -.735609736138D+00 -.766246202944D-08
     .839320675361D-10  .100000000000D+01  .174400000000D+04  .000000000000D+00
     .240000000000D+01  .000000000000D+00 -.130385160446D-07  .500000000000D+02
     .518406000000D+06  .400000000000D+01
32 13  6 15  2  0  0.0 -.558980740607D-03 -.341060513165D-12  .000000000000D+00
     .660000000000D+02  .340937500000D+02  .498235039204D-08  .221486458440D+01
     .181794166565D-05  .115701388568D-01  .600516796112D-05  .515367149353D+04
     .525600000000D+06  .447034835815D-07 -.584873537736D+00  .257045030594D-06
     .949142524030D+00  .256281250000D+03 -.349867151748D+00 -.825570102594D-08
    -.183579075377D-09  .100000000000D+01  .174400000000D+04  .000000000000D+00
     .240000000000D+01  .000000000000D+00 -.279396772385D-08  .660000000000D+02
     .518406000000D+06  .400000000000D+01
